INTELSAT 902 (IS-902)   
1 26900U 01039A   26165.17973993 -.00000280  00000+0  00000+0 0  9997
2 26900   6.1100  71.8210 0004506   7.7564 197.5086  1.00271075 90660
INTELSAT 904 (IS-904)   
1 27380U 02007A   26165.11207642 -.00000222  00000+0  00000+0 0  9997
2 27380   6.9122  69.2210 0006475   4.0178 198.0362  1.00271184 51733
DIRECTV 5 (TEMPO 1)     
1 27426U 02023A   26165.25685079 -.00000053  00000+0  00000+0 0  9997
2 27426   4.8702  75.3465 0003220  21.5478 148.0271  1.00271437 88091
INTELSAT 905 (IS-905)   
1 27438U 02027A   26164.46836434  .00000100  00000+0  00000+0 0  9991
2 27438   6.7440  69.8438 0003808  20.0607 203.2730  1.00271998 51324
GALAXY 3C (G-3C)        
1 27445U 02030A   26165.17090236 -.00000147  00000+0  00000+0 0  9996
2 27445   3.7235  78.0160 0001537  34.3410 116.7933  1.00271165 46460
INTELSAT 906 (IS-906)   
1 27513U 02041A   26165.20302568  .00000017  00000+0  00000+0 0  9997
2 27513   5.7955  72.9589 0004639   3.9186 322.8531  1.00272354 86990
GALAXY 13 (HORIZONS-1)  
1 27954U 03044A   26165.15999442  .00000140  00000+0  00000+0 0  9994
2 27954   1.4119  83.9032 0002299 348.3898  97.7665  1.00269661 46545
INTELSAT 10-02          
1 28358U 04022A   26165.18944664 -.00000003  00000+0  00000+0 0  9998
2 28358   0.0133 328.7641 0000264 276.6580  84.2589  1.00267355 80522
DIRECTV 8               
1 28659U 05019A   26165.15044598  .00000010  00000+0  00000+0 0  9990
2 28659   0.0271  70.1038 0002750  16.8104 110.6454  1.00270909 77042
GALAXY 28 (G-28)        
1 28702U 05022A   26165.18424662 -.00000194  00000+0  00000+0 0  9994
2 28702   3.2912  78.9706 0002880   2.7391 220.0069  1.00271210 51947
GALAXY 16 (G-16)        
1 29236U 06023A   26165.29680781 -.00000118  00000+0  00000+0 0  9993
2 29236   0.0485 142.3222 0002436 306.5116 181.6116  1.00270600 72946
DIRECTV 9S              
1 29494U 06043A   26165.30900295 -.00000107  00000+0  00000+0 0  9996
2 29494   2.4133  80.9364 0004840  11.2376 180.4878  1.00270846 51357
GALAXY 17 (G-17)        
1 31307U 07016B   26165.17280904 -.00000199  00000+0  00000+0 0  9997
2 31307   2.9645  79.9377 0004755  21.8757 137.8665  1.00269627 69773
INTELSAT 11 (IS-11)     
1 32253U 07044B   26165.21718010 -.00000275  00000+0  00000+0 0  9993
2 32253   3.5576  78.7042 0002207  91.2250 309.6908  0.99052087 68426
HORIZONS-2              
1 32388U 07063B   26165.19558542 -.00000247  00000+0  00000+0 0  9991
2 32388   2.5943  80.6621 0003725   0.2546 178.2074  1.00269386 67788
DIRECTV 11              
1 32729U 08013A   26164.45710639 -.00000114  00000+0  00000+0 0  9994
2 32729   0.0087 254.9847 0000317 115.1892 316.9799  1.00271658 45550
GALAXY 18 (G-18)        
1 32951U 08024A   26165.15044598  .00000000  00000+0  00000+0 0  9998
2 32951   0.0258  11.2351 0002677  73.8390 108.5327  1.00271460 45828
INTELSAT 25 (IS-25)     
1 33153U 08034A   26165.21631344 -.00000263  00000+0  00000+0 0  9994
2 33153   2.7020  80.4064 0003144  59.3908 335.4691  0.99036172 65667
GALAXY 19 (G-19)        
1 33376U 08045A   26165.28844211  .00000000  00000+0  00000+0 0  9997
2 33376   0.0200   1.8272 0002432  85.9997 181.6069  1.00270250 64877
FM-5                    
1 35493U 09034A   26164.88743541 -.00000190  00000+0  00000+0 0  9998
2 35493   0.0188 294.1596 0000934   7.5661 193.7979  1.00271423 46612
INTELSAT 14 (IS-14)     
1 36097U 09064A   26165.18077994 -.00000265  00000+0  00000+0 0  9991
2 36097   0.0168  41.6074 0002171  33.4593 207.5118  1.00270550 60574
INTELSAT 15 (IS-15)     
1 36106U 09067A   26165.06395457 -.00000176  00000+0  00000+0 0  9990
2 36106   0.0183  44.4221 0002018  42.1704 283.9514  1.00270924 41198
DIRECTV 12              
1 36131U 09075A   26164.95546683 -.00000094  00000+0  00000+0 0  9992
2 36131   0.0095 102.2817 0000218 253.2892 147.9395  1.00273462 46523
INTELSAT 16 (IS-16)     
1 36397U 10006A   26165.17454237 -.00000236  00000+0  00000+0 0  9998
2 36397   0.0233 298.4527 0001877 159.3768 151.2903  1.00273809 59620
XM-5                    
1 37185U 10053A   26165.02423153 -.00000014  00000+0  00000+0 0  9997
2 37185   0.0636 273.2510 0002962 287.7415 314.8679  1.00271588 57455
INTELSAT 17 (IS-17)     
1 37238U 10065B   26165.20650102  .00000007  00000+0  00000+0 0  9996
2 37238   0.0069  73.0495 0002564  18.3331 311.4608  1.00271193 53212
INTELSAT 28 (IS-28)     
1 37392U 11016A   26165.18337995 -.00000218  00000+0  00000+0 0  9998
2 37392   1.7983  82.6573 0003587   5.2168 208.9213  1.00270375 53255
INTELSAT 18 (IS-18)     
1 37834U 11056A   26165.08263887  .00000062  00000+0  00000+0 0  9996
2 37834   0.0185 291.6518 0002013 169.2628  11.2341  1.00271894 53780
INTELSAT 22 (IS-22)     
1 38098U 12011A   26165.19955606  .00000000  00000+0  00000+0 0  9992
2 38098   0.0386  51.4002 0001580  46.6959 308.3274  1.00271227  7154
INTELSAT 19 (IS-19)     
1 38356U 12030A   26165.15124105 -.00000048  00000+0  00000+0 0  9991
2 38356   0.0143  17.3417 0002818  73.0171  32.5403  1.00270526 50427
INTELSAT 20 (IS-20)     
1 38740U 12043A   26165.20622325 -.00000015  00000+0  00000+0 0  9999
2 38740   0.0035  24.4085 0001513 152.8757 227.9786  1.00269321 50718
